NORAD_CAT_ID,OBJECT_NAME,OBJECT_TYPE,EPOCH,MEAN_MOTION,ECCENTRICITY,INCLINATION,RA_OF_ASC_NODE,ARG_OF_PERICENTER,MEAN_ANOMALY,BSTAR,MEAN_MOTION_DOT,MEAN_MOTION_DDOT,TLE_LINE0,TLE_LINE1,TLE_LINE2,SEMIMAJOR_AXIS,PERIOD,APOGEE,PERIGEE,DECAYED
50169.0,STARLINK-3301,PAYLOAD,2022-06-25 19:02:30,15.08842461,0.0002681,53.218,202.5207,35.7034,324.4137,5.9912e-05,6.65e-06,0.0,0 STARLINK-3301,1 50169U 21125P   22176.79340805  .00000665  00000-0  59912-4 0  9993,2 50169  53.2180 202.5207 0002681  35.7034 324.4137 15.08842461 29272,6917.873000000001,95.437,541.5930000000002,537.883,0.0
50169.0,STARLINK-3301,PAYLOAD,2022-06-26 10:56:21,15.08848343,0.0002718,53.218,199.547,36.7271,323.3907,5.9887e-05,6.65e-06,0.0,0 STARLINK-3301,1 50169U 21125P   22177.45580196  .00000665  00000-0  59887-4 0  9997,2 50169  53.2180 199.5470 0002718  36.7271 323.3907 15.08848343 32467,6917.855,95.437,541.6,537.84,0.0
50169.0,STARLINK-3301,PAYLOAD,2022-06-26 18:53:17,15.08838566,0.0002667,53.2177,198.0604,35.7542,324.3628,-2.6757e-05,-7.14e-06,0.0,0 STARLINK-3301,1 50169U 21125P   22177.78701049 -.00000714  00000-0 -26757-4 0  9992,2 50169  53.2177 198.0604 0002667  35.7542 324.3628 15.08838566 32512,6917.885,95.438,541.595,537.905,0.0
50169.0,STARLINK-3301,PAYLOAD,2022-06-27 10:47:09,15.08837468,0.0002738,53.2176,195.087,37.0877,323.0304,-5.8114e-05,-1.213e-05,0.0,0 STARLINK-3301,1 50169U 21125P   22178.44941277 -.00001213  00000-0 -58114-4 0  9992,2 50169  53.2176 195.0870 0002738  37.0877 323.0304 15.08837468 32616,6917.888000000001,95.438,541.6469999999998,537.859,0.0
50169.0,STARLINK-3301,PAYLOAD,2022-06-28 04:16:23,15.0883982,0.0002784,53.2175,191.8151,40.3842,319.7357,-5.0827e-05,-1.097e-05,0.0,0 STARLINK-3301,1 50169U 21125P   22179.17805122 -.00001097  00000-0 -50827-4 0  9994,2 50169  53.2175 191.8151 0002784  40.3842 319.7357 15.08839820 29633,6917.880999999999,95.438,541.672,537.82,0.0
50169.0,STARLINK-3301,PAYLOAD,2022-06-28 12:13:19,15.08838204,0.0002808,53.2178,190.3296,38.6122,321.507,-2.9933000000000013e-05,-7.65e-06,0.0,0 STARLINK-3301,1 50169U 21125P   22179.50925163 -.00000765  00000-0 -29933-4 0  9994,2 50169  53.2178 190.3296 0002808  38.6122 321.5070 15.08838204 32775,6917.886,95.438,541.693,537.808,0.0
50169.0,STARLINK-3301,PAYLOAD,2022-06-29 12:04:06,15.08836077,0.0002871,53.2178,185.8691,40.0291,320.0913,3.6053e-05,2.85e-06,0.0,0 STARLINK-3301,1 50169U 21125P   22180.50285271  .00000285  00000-0  36053-4 0  9991,2 50169  53.2178 185.8691 0002871  40.0291 320.0913 15.08836077 32920,6917.892,95.438,541.744,537.771,0.0
50169.0,STARLINK-3301,PAYLOAD,2022-06-30 11:54:53,15.08839067,0.0002931,53.2179,181.4088,41.919,318.2026,2.7127e-05,1.43e-06,0.0,0 STARLINK-3301,1 50169U 21125P   22181.49645206  .00000143  00000-0  27127-4 0  9993,2 50169  53.2179 181.4088 0002931  41.9190 318.2026 15.08839067 33071,6917.8830000000025,95.438,541.776,537.721,0.0
50169.0,STARLINK-3301,PAYLOAD,2022-06-30 16:41:02,15.08839732,0.0002944,53.218,180.5168,42.1997,317.9222,3.0447e-05,1.96e-06,0.0,0 STARLINK-3301,1 50169U 21125P   22181.69517144  .00000196  00000-0  30447-4 0  9991,2 50169  53.2180 180.5168 0002944  42.1997 317.9222 15.08839732 33101,6917.880999999999,95.438,541.783,537.71,0.0
50169.0,STARLINK-3301,PAYLOAD,2022-07-01 08:34:54,15.08831629,0.0002994,53.2178,177.5442,41.6399,318.4821,-6.9259e-05,-1.391e-05,0.0,0 STARLINK-3301,1 50169U 21125P   22182.35758023 -.00001391  00000-0 -69259-4 0  9991,2 50169  53.2178 177.5442 0002994  41.6399 318.4821 15.08831629 33203,6917.906,95.438,541.842,537.7,0.0
50169.0,STARLINK-3301,PAYLOAD,2022-07-01 16:31:51,15.08825944,0.0002945,53.2179,176.0567,42.9664,317.1557,-0.00010737,-1.996e-05,0.0,0 STARLINK-3301,1 50169U 21125P   22182.68878648 -.00001996  00000-0 -10737-3 0  9990,2 50169  53.2179 176.0567 0002945  42.9664 317.1557 15.08825944 33251,6917.9230000000025,95.438,541.826,537.751,0.0
50169.0,STARLINK-3301,PAYLOAD,2022-07-02 08:25:42,15.08828527,0.0002943,53.2178,173.083,44.1383,315.9844,-8.7296e-05,-1.677e-05,0.0,0 STARLINK-3301,1 50169U 21125P   22183.35118890 -.00001677  00000-0 -87296-4 0  9992,2 50169  53.2178 173.0830 0002943  44.1383 315.9844 15.08828527 33356,6917.915,95.438,541.816,537.745,0.0
50169.0,STARLINK-3301,PAYLOAD,2022-07-02 16:22:38,15.08829571,0.0002943,53.2177,171.5962,44.1291,315.9935,-7.4001e-05,-1.466e-05,0.0,0 STARLINK-3301,1 50169U 21125P   22183.68238993 -.00001466  00000-0 -74001-4 0  9991,2 50169  53.2177 171.5962 0002943  44.1291 315.9935 15.08829571 30316,6917.9119999999975,95.438,541.813,537.741,0.0
50169.0,STARLINK-3301,PAYLOAD,2022-07-03 11:27:16,15.088254199999998,0.0003031,53.218,168.0281,45.8531,314.271,4.9076e-05,4.92e-06,0.0,0 STARLINK-3301,1 50169U 21125P   22184.47727371  .00000492  00000-0  49076-4 0  9992,2 50169  53.2180 168.0281 0003031  45.8531 314.2710 15.08825420 33527,6917.925,95.438,541.887,537.693,0.0
50169.0,STARLINK-3301,PAYLOAD,2022-07-03 16:13:26,15.08824924,0.0003049,53.2181,167.136,46.3351,313.7894,6.063899999999999e-05,6.76e-06,0.0,0 STARLINK-3301,1 50169U 21125P   22184.67599551  .00000676  00000-0  60639-4 0  9993,2 50169  53.2181 167.1360 0003049  46.3351 313.7894 15.08824924 33559,6917.926,95.439,541.901,537.682,0.0
50169.0,STARLINK-3301,PAYLOAD,2022-07-04 08:07:17,15.0882985,0.0003121,53.2182,164.1624,47.7638,312.3618,7.053e-05,8.34e-06,0.0,0 STARLINK-3301,1 50169U 21125P   22185.33839763  .00000834  00000-0  70530-4 0  9996,2 50169  53.2182 164.1624 0003121  47.7638 312.3618 15.08829850 33657,6917.911,95.438,541.935,537.617,0.0
50169.0,STARLINK-3301,PAYLOAD,2022-07-04 16:04:13,15.08832153,0.0003138,53.2183,162.6757,48.3684,311.7576,7.278e-05,8.7e-06,0.0,0 STARLINK-3301,1 50169U 21125P   22185.66959794  .00000870  00000-0  72780-4 0  9998,2 50169  53.2183 162.6757 0003138  48.3684 311.7576 15.08832153 33706,6917.904,95.438,541.94,537.599,0.0
50169.0,STARLINK-3301,PAYLOAD,2022-07-05 07:58:04,15.08838365,0.0003185,53.2183,159.7022,49.6214,310.5056,7.429600000000001e-05,8.94e-06,0.0,0 STARLINK-3301,1 50169U 21125P   22186.33199588  .00000894  00000-0  74296-4 0  9990,2 50169  53.2183 159.7022 0003185  49.6214 310.5056 15.08838365 33805,6917.885,95.438,541.9540000000002,537.547,0.0
50169.0,STARLINK-3301,PAYLOAD,2022-07-06 04:38:04,15.08846236,0.0003233,53.2183,155.8366,51.1723,308.9557,7.6059e-05,9.22e-06,0.0,0 STARLINK-3301,1 50169U 21125P   22187.19310958  .00000922  00000-0  76059-4 0  9992,2 50169  53.2183 155.8366 0003233  51.1723 308.9557 15.08846236 30844,6917.861,95.437,541.9630000000002,537.49,0.0
50169.0,STARLINK-3301,PAYLOAD,2022-07-06 09:24:13,15.08847531,0.0003245,53.2183,154.9445,51.6967,308.4316,8.271899999999999e-05,1.028e-05,0.0,0 STARLINK-3301,1 50169U 21125P   22187.39182759  .00001028  00000-0  82719-4 0  9998,2 50169  53.2183 154.9445 0003245  51.6967 308.4316 15.08847531 33963,6917.857,95.437,541.967,537.4780000000002,0.0
50169.0,STARLINK-3301,PAYLOAD,2022-07-07 09:15:01,15.08840622,0.0003276,53.2185,150.4843,53.9106,306.2189,-2.5837e-05,-7.000000000000003e-06,0.0,0 STARLINK-3301,1 50169U 21125P   22188.38543372 -.00000700  00000-0 -25837-4 0  9996,2 50169  53.2185 150.4843 0003276  53.9106 306.2189 15.08840622 34118,6917.878000000002,95.438,542.01,537.477,0.0
50169.0,STARLINK-3301,PAYLOAD,2022-07-08 04:19:38,15.08852701,0.000327,53.2186,146.9162,55.3483,304.7817,1.8722e-05,9e-08,0.0,0 STARLINK-3301,1 50169U 21125P   22189.18030154  .00000009  00000-0  18722-4 0  9999,2 50169  53.2186 146.9162 0003270  55.3483 304.7817 15.08852701 31143,6917.842,95.437,541.969,537.444,0.0
50169.0,STARLINK-3301,PAYLOAD,2022-07-08 09:05:47,15.08855215,0.0003294,53.2187,146.024,55.5606,304.5697,4.0112e-05,3.5000000000000016e-06,0.0,0 STARLINK-3301,1 50169U 21125P   22189.37901759  .00000350  00000-0  40112-4 0  9995,2 50169  53.2187 146.0240 0003294  55.5606 304.5697 15.08855215 34260,6917.834,95.437,541.9780000000002,537.42,0.0
50169.0,STARLINK-3301,PAYLOAD,2022-07-08 13:51:56,15.088594,0.0003291,53.2187,145.1321,55.7569,304.3734,6.786699999999999e-05,7.92e-06,0.0,0 STARLINK-3301,1 50169U 21125P   22189.57773187  .00000792  00000-0  67867-4 0  9995,2 50169  53.2187 145.1321 0003291  55.7569 304.3734 15.08859400 34290,6917.821,95.436,541.9630000000002,537.409,0.0
50169.0,STARLINK-3301,PAYLOAD,2022-07-09 04:10:24,15.08846586,0.0003273999999999,53.2189,142.4562,56.6505,303.48,6.0294e-05,6.71e-06,0.0,0 STARLINK-3301,1 50169U 21125P   22190.17389600  .00000671  00000-0  60294-4 0  9999,2 50169  53.2189 142.4562 0003274  56.6505 303.4800 15.08846586 31292,6917.86,95.437,541.99,537.46,0.0
50169.0,STARLINK-3301,PAYLOAD,2022-07-09 08:56:33,15.08847777,0.0003288,53.2189,141.5641,56.6411,303.4895,6.4179e-05,7.33e-06,0.0,0 STARLINK-3301,1 50169U 21125P   22190.37261401  .00000733  00000-0  64179-4 0  9994,2 50169  53.2189 141.5641 0003288  56.6411 303.4895 15.08847777 34415,6917.857,95.437,541.996,537.447,0.0
50169.0,STARLINK-3301,PAYLOAD,2022-07-09 13:42:43,15.08847324,0.000327,53.219,140.6724,57.9005,302.2304,5.188300000000001e-05,5.37e-06,0.0,0 STARLINK-3301,1 50169U 21125P   22190.57133353  .00000537  00000-0  51883-4 0  9990,2 50169  53.2190 140.6724 0003270  57.9005 302.2304 15.08847324 34446,6917.858,95.437,541.985,537.461,0.0
50169.0,STARLINK-3301,PAYLOAD,2022-07-10 04:01:14,15.08817424,0.0003032,53.2191,137.9963,56.7187,303.4095,-0.0002586,-4.4e-05,0.0,0 STARLINK-3301,1 50169U 21125P   22191.16752902 -.00004400  00000-0 -25860-3 0  9993,2 50169  53.2191 137.9963 0003032  56.7187 303.4095 15.08817424 31440,6917.949000000001,95.439,541.9119999999998,537.717,0.0
50169.0,STARLINK-3301,PAYLOAD,2022-07-10 07:12:01,15.08815831,0.0003056,53.2189,137.401,56.5182,303.6102,-0.00026468,-4.496e-05,0.0,0 STARLINK-3301,1 50169U 21125P   22191.30001168 -.00004496  00000-0 -26468-3 0  9990,2 50169  53.2189 137.4010 0003056  56.5182 303.6102 15.08815831 34550,6917.954000000002,95.439,541.933,537.705,0.0
